COSMOS 2433 (720)       
1 32275U 07052A   25110.11413850 -.00000024  00000+0  00000+0 0  9990
2 32275  65.8032 330.1374 0000761 259.1730 100.8681  2.13104068136084
COSMOS 2432 (719)       
1 32276U 07052B   25109.95456925 -.00000025  00000+0  00000+0 0  9992
2 32276  65.8186 330.2623 0009706 337.4637 205.4493  2.13103221136079
COSMOS 2434 (721)       
1 32393U 07065A   25109.39675519  .00000015  00000+0  00000+0 0  9994
2 32393  64.3148 206.2150 0002062  67.9408 353.3295  2.13101389134745
COSMOS 2436 (723)       
1 32395U 07065C   25109.68592657  .00000014  00000+0  00000+0 0  9998
2 32395  64.3233 206.2730 0016724   0.7834  56.4331  2.13100288134709
COSMOS 2456 (730)       
1 36111U 09070A   25109.97976060  .00000058  00000+0  00000+0 0  9990
2 36111  64.7685  85.4361 0006356 310.5971 353.4742  2.13103707119400
COSMOS 2457 (733)       
1 36112U 09070B   25110.47469755  .00000060  00000+0  00000+0 0  9999
2 36112  64.7538  85.2716 0001972 193.0732 262.0091  2.13101138119462
COSMOS 2460 (732)       
1 36402U 10007C   25109.86469029 -.00000023  00000+0  00000+0 0  9998
2 36402  65.6536 328.7568 0002261  50.0890 293.0219  2.13106225117704
COSMOS 2476 (744)       
1 37867U 11064A   25110.33153199  .00000063  00000+0  00000+0 0  9993
2 37867  65.0354  87.1724 0024224 242.2021 242.0734  2.13101538104801
COSMOS 2477 (745)       
1 37868U 11064B   25110.53254037  .00000064  00000+0  00000+0 0  9990
2 37868  65.0423  87.2411 0021402 243.8693 214.2887  2.13103012104742
COSMOS 2475 (743)       
1 37869U 11064C   25109.69085481  .00000060  00000+0  00000+0 0  9997
2 37869  65.0489  87.2872 0027039 256.2617 233.1772  2.13101784104749
COSMOS 2485 (747)       
1 39155U 13019A   25109.17071080  .00000057  00000+0  00000+0 0  9998
2 39155  65.1893  87.8591 0024526 238.1299 121.6238  2.13104534 93242
COSMOS 2492 (754)       
1 39620U 14012A   25109.12757327 -.00000027  00000+0  00000+0 0  9997
2 39620  65.5339 328.3139 0012445 330.4401  29.5376  2.13103255 86203
COSMOS 2500 (755)       
1 40001U 14032A   25109.30287828 -.00000026  00000+0  00000+0 0  9997
2 40001  65.4699 328.0891 0005014 188.5837 171.4554  2.13106039 84427
COSMOS 2501 (702K)      
1 40315U 14075A   25109.55952820  .00000014  00000+0  00000+0 0  9996
2 40315  63.6148 205.0413 0020726 208.2446 151.6808  2.13101392 80820
COSMOS 2514 (751)       
1 41330U 16008A   25110.01231704 -.00000021  00000+0  00000+0 0  9995
2 41330  65.2619 327.4966 0008724 203.7392 156.2677  2.13102756 71601
COSMOS 2522 (752)       
1 42939U 17055A   25110.32060764  .00000011  00000+0  00000+0 0  9992
2 42939  64.0763 206.2820 0008520 235.4404 124.5139  2.13101821 58964
COSMOS 2527 (756)       
1 43508U 18053A   25110.28048576  .00000065  00000+0  00000+0 0  9995
2 43508  65.3488  88.0376 0009193 247.2877 112.6104  2.13102241 53264
COSMOS 2529 (757)       
1 43687U 18086A   25109.44021669  .00000015  00000+0  00000+0 0  9994
2 43687  64.2924 206.9072 0009551 257.0439 102.8847  2.13102030 50257
COSMOS 2534 (758)       
1 44299U 19030A   25109.31562632  .00000016  00000+0  00000+0 0  9991
2 44299  64.3656 206.8936 0011296 280.1573 118.4932  2.13102342 45891
COSMOS 2544 (759)       
1 44850U 19088A   25109.28629711  .00000058  00000+0  00000+0 0  9991
2 44850  65.3355  87.9021 0015234 262.3818  97.4378  2.13102047 41689
COSMOS 2545 (760)       
1 45358U 20018A   25109.95223942 -.00000023  00000+0  00000+0 0  9993
2 45358  64.5997 327.2588 0007157 246.4100 113.5613  2.13102582 39645
COSMOS 2547 (705K)      
1 46805U 20075A   25110.13808399  .00000012  00000+0  00000+0 0  9998
2 46805  64.5955 206.5988 0007599 236.6081 123.3538  2.13100432 34898
COSMOS 2557 (706K)      
1 52984U 22075A   25109.36661726 -.00000029  00000+0  00000+0 0  9998
2 52984  64.5350 329.3814 0010919 284.7596  75.1674  2.13102019 21680
COSMOS 2559 (707K)      
1 54031U 22130A   25091.00919060 -.00000051  00000+0  00000+0 0  9998
2 54031  64.5157 330.1326 0005192 225.6156 134.3984  2.13101195 19268
COSMOS 2564 (761)       
1 54377U 22161A   25109.96880889  .00000013  00000+0  00000+0 0  9993
2 54377  64.7371 206.7644 0010088 217.3048 142.6598  2.13101983 18616
COSMOS 2569 (703K)      
1 57517U 23114A   25109.98367247  .00000061  00000+0  00000+0 0  9994
2 57517  65.0671  86.9176 0012794 295.1818  64.6793  2.13103875 13241
COSMOS 2584 (704K)      
1 63130U 25042A   25109.40092589  .00000057  00000+0  00000+0 0  9990
2 63130  64.8481  87.2349 0007633 237.0418 122.8774  2.13103635  1010
